[{"OBJECT_NAME":"STARLINK-3727","OBJECT_ID":"2022-029AP","EPOCH":"2026-03-09T08:36:27.052416","MEAN_MOTION":15.0883726,"ECCENTRICITY":0.00019428,"INCLINATION":53.2172,"RA_OF_ASC_NODE":70.6049,"ARG_OF_PERICENTER":75.8388,"MEAN_ANOMALY":284.282,"EPHEMERIS_TYPE":0,"CLASSIFICATION_TYPE":"U","NORAD_CAT_ID":52125,"ELEMENT_SET_NO":999,"REV_AT_EPOCH":22088,"BSTAR":2.5531047e-5,"MEAN_MOTION_DOT":1.18e-6,"MEAN_MOTION_DDOT":0},{"OBJECT_NAME":"ICEYE-X67","OBJECT_ID":"2025-248K","EPOCH":"2026-03-09T22:00:01.999584","MEAN_MOTION":15.09405994,"ECCENTRICITY":0.00063951,"INCLINATION":45.4045,"RA_OF_ASC_NODE":295.7576,"ARG_OF_PERICENTER":209.4534,"MEAN_ANOMALY":51.9892,"EPHEMERIS_TYPE":0,"CLASSIFICATION_TYPE":"U","NORAD_CAT_ID":66302,"ELEMENT_SET_NO":999,"REV_AT_EPOCH":578,"BSTAR":-0.000164009,"MEAN_MOTION_DOT":-2.917e-5,"MEAN_MOTION_DDOT":0}]
